{
    "waypoints": [
        { "address": "1 Hanlan Court", "city": "", "postalCode": "L1N9X4" },
        { "address": "1 Muir Cres", "city": "", "postalCode": "L1P1B5" },
        { "address": "1 Queensmill Court", "city": "", "postalCode": "L4B1M9" },
        { "address": "10 Bassett Blvd", "city": "", "postalCode": "L1N9C6" },
        { "address": "10 Bugelli Dr", "city": "", "postalCode": "L1R3B7" },
        { "address": "10 Jack Court", "city": "", "postalCode": "L3P3R3" },
        { "address": "10 Peel Court", "city": "", "postalCode": "L3P5Y5" },
        { "address": "10 Saddleworth Rd", "city": "", "postalCode": "L6C0X9" },
        { "address": "10 St. Moritz Way", "city": "", "postalCode": "L3R4E8" },
        { "address": "10 Wenderly Drive", "city": "", "postalCode": "L4G1V4" },
        { "address": "100 Promenade Circle", "city": "", "postalCode": "L4J7W7" },
        { "address": "100 Shrewsbury Dr", "city": "", "postalCode": "L1M0E3" },
        { "address": "100 Wetherburn Dr", "city": "", "postalCode": "L1P1N5" },
        { "address": "101 Clark Ave", "city": "", "postalCode": "L3T1T1" },
        { "address": "101 Kathleen St", "city": "", "postalCode": "L1N6P8" },
        { "address": "101 Puttingedge Dr", "city": "", "postalCode": "L1R0H8" },
        { "address": "101 South Unionville Ave", "city": "", "postalCode": "L3R6B8" },
        { "address": "25 Centurian Dr", "city": "", "postalCode": "L3R5N8" },
        { "address": "1020 Denison St", "city": "", "postalCode": "L3R3W5" },
        { "address": "1022 King street", "city": "", "postalCode": "L1N5A5" },
        { "address": "1032 Ashley Place", "city": "", "postalCode": "L3Y7E3" },
        { "address": "104 Mildenhall place", "city": "", "postalCode": "L1M0E4" },
        { "address": "105 Zachary Place", "city": "", "postalCode": "L1M1E2" },
        { "address": "10579 Woodbine Ave", "city": "", "postalCode": "L6C0C9" },
        { "address": "1058 Warby Trail", "city": "", "postalCode": "L3X3H7" },
        { "address": "106 Impala Crescent", "city": "", "postalCode": "L4L3T8" },
        { "address": "106 William Booth Avenue", "city": "", "postalCode": "L3X3B2" },
        { "address": "108 Breakwater Dr", "city": "", "postalCode": "L1N9N5" },
        { "address": "108 Usherwood St", "city": "", "postalCode": "L4G0G1" },
        { "address": "108 Willowbrook Dr", "city": "", "postalCode": "L1R2S8" },
        { "address": "11 Channel Drive", "city": "", "postalCode": "L1N9R6" },
        { "address": "11 Elizabeth St", "city": "", "postalCode": "L3P2B3" },
        { "address": "11 Judy Court", "city": "", "postalCode": "L3P3R8" },
        { "address": "11 Larmont St", "city": "", "postalCode": "L4G1V6" },
        { "address": "11 Plaisance Road", "city": "", "postalCode": "L4C5H1" },
        { "address": "110 Rougeview Park Cres", "city": "", "postalCode": "L6E0P9" },
        { "address": "1100 Bur Oak Avenue", "city": "", "postalCode": "L6E1H1" },
        { "address": "111 Spragg Circle", "city": "", "postalCode": "L3P7N4" },
        { "address": "65 Oneida Cres", "city": "", "postalCode": "L4B0G9" },
        { "address": "113 Patrice Crescent", "city": "", "postalCode": "L4J4Z5" },
        { "address": "114 Betony Drive", "city": "", "postalCode": "L4E0P3" },
        { "address": "116 Kenley Cres", "city": "", "postalCode": "L3R6X5" },
        { "address": "119 Michener Crescent", "city": "", "postalCode": "L3P6Z2" },
        { "address": "119 Parkway Ave", "city": "", "postalCode": "L3P2H4" },
        { "address": "12 Breckonwood Cres", "city": "", "postalCode": "L3T5E8" },
        { "address": "12 Bronte Road", "city": "", "postalCode": "L3T7H5" },
        { "address": "12 Crowling Court", "city": "", "postalCode": "L4E3Y6" },
        { "address": "12 Davidson Road", "city": "", "postalCode": "L4G2B1" },
        { "address": "12 Debonair St", "city": "", "postalCode": "L4C0R2" },
        { "address": "12 Odessa Crescent", "city": "", "postalCode": "L1R3N9" },
        { "address": "120 Holm Cres", "city": "", "postalCode": "L3T5J3" },
        { "address": "1201 Green St", "city": "", "postalCode": "L1N4H1" },
        { "address": "1228 Atkins Drive", "city": "", "postalCode": "L3X0C8" },
        { "address": "123 Pinnacle Trail", "city": "", "postalCode": "L4G7G7" },
        { "address": "1234 Reid Street", "city": "", "postalCode": "L4B1C1" },
        { "address": "129 Centre Street West", "city": "", "postalCode": "L4C3P6" },
        { "address": "130 Main St", "city": "", "postalCode": "L3R2G4" },
        { "address": "130 Nolan Court", "city": "", "postalCode": "L3R2V7" },
        { "address": "130 Village Green Drive", "city": "", "postalCode": "L4L9G9" },
        { "address": "131 Pine St", "city": "", "postalCode": "L1N3X3" },
        { "address": "133 White Boulevard", "city": "", "postalCode": "L4J5Z1" },
        { "address": "135 Birkshire Drive", "city": "", "postalCode": "L4G7R7" },
        { "address": "136 Buckle Crescent", "city": "", "postalCode": "L4G0T4" },
        { "address": "137 Golden Tulip Cres", "city": "", "postalCode": "L6C1W5" },
        { "address": "139 Springhead Gdns", "city": "", "postalCode": "L4C5C3" },
        { "address": "14 Almond Ave", "city": "", "postalCode": "L3T1L1" },
        { "address": "14 Jermyn St", "city": "", "postalCode": "L1N5M5" },
        { "address": "14 Manning crescent", "city": "", "postalCode": "L3Y6H4" },
        { "address": "14 Renberg Dr", "city": "", "postalCode": "L6C1Y5" },
        { "address": "14 Rush Rd", "city": "", "postalCode": "L4G7G3" },
        { "address": "14 Talisman Crescent", "city": "", "postalCode": "L3P2E1" },
        { "address": "140 Castle Rock Drive", "city": "", "postalCode": "L4C5K5" },
        { "address": "142 Alfred Paterson Drive", "city": "", "postalCode": "L6E1L1" },
        { "address": "143 Trothen Cir", "city": "", "postalCode": "L3P4H4" },
        { "address": "143 green bush cres", "city": "", "postalCode": "L4J5L7" },
        { "address": "144 Watford Street", "city": "", "postalCode": "L1M1H2" },
        { "address": "146 Calais St", "city": "", "postalCode": "L1N5M2" },
        { "address": "148 Mullen Drive", "city": "", "postalCode": "L4J2V3" },
        { "address": "148 Regatta Avenue", "city": "", "postalCode": "L4E4R2" },
        { "address": "149 Seabreeze Avenue", "city": "", "postalCode": "L4J9G9" },
        { "address": "15 Bexley Crescent", "city": "", "postalCode": "L1M2C7" },
        { "address": "15 Bugelli Drive", "city": "", "postalCode": "L1R3B7" },
        { "address": "15 Fieldnest Cres", "city": "", "postalCode": "L1R1Z5" },
        { "address": "15 Magenta Street", "city": "", "postalCode": "L4B4H2" },
        { "address": "15 McCallum Drive", "city": "", "postalCode": "L4C7T3" },
        { "address": "15 Pringle Ave", "city": "", "postalCode": "L3P2P3" },
        { "address": "15 Sawyer Cres", "city": "", "postalCode": "L3P5V2" },
        { "address": "151 Corner Ridge Rd", "city": "", "postalCode": "L4G6L5" },
        { "address": "151 Milos Road", "city": "", "postalCode": "L4E0L5" },
        { "address": "154 Autumn Hill Boulevard", "city": "", "postalCode": "L4J8Z3" },
        { "address": "154 Bradbeer Crescent", "city": "", "postalCode": "L4J5M7" },
        { "address": "156 Garrard Road", "city": "", "postalCode": "L1N3K6" },
        { "address": "157 Kirk Drive", "city": "", "postalCode": "L3T3L5" },
        { "address": "16 Ault Cres", "city": "", "postalCode": "L1M2G6" },
        { "address": "16 Glamis Pl", "city": "", "postalCode": "L3T3G8" },
        { "address": "16 McCarty Crescent", "city": "", "postalCode": "L3P4R6" },
        { "address": "16 Oakbank Rd", "city": "", "postalCode": "L4J2B9" },
        { "address": "16 Pitney Avenue", "city": "", "postalCode": "L4E4Y6" },
        { "address": "163 Mintwood Road", "city": "", "postalCode": "L4J0G4" },
        { "address": "167 May Avenue", "city": "", "postalCode": "L4C3S8" },
        { "address": "17 Celadine Dr", "city": "", "postalCode": "L3R2M3" },
        { "address": "17 Crystal Dr", "city": "", "postalCode": "L4C7Z4" },
        { "address": "17 Emmett Place", "city": "", "postalCode": "L1R2B4" },
        { "address": "17 Lund Street", "city": "", "postalCode": "L4C8S8" },
        { "address": "17 Nardini Lane", "city": "", "postalCode": "L4C0Z9" },
        { "address": "17 Vanessa Pl", "city": "", "postalCode": "L1N6V1" },
        { "address": "170 Stellick", "city": "", "postalCode": "L3X1T3" },
        { "address": "175 Spadina road", "city": "", "postalCode": "L4B3C5" },
        { "address": "17859 Yonge Street", "city": "", "postalCode": "L3Y8Z3" },
        { "address": "18 Castle Harbour Lane", "city": "", "postalCode": "L3T3A2" },
        { "address": "18 Clark Ave. W", "city": "", "postalCode": "L4J8H1" },
        { "address": "18 Dunsley way", "city": "", "postalCode": "L1N0L5" },
        { "address": "18 Pembrooke Road", "city": "", "postalCode": "L6C2T4" },
        { "address": "18 Uptown Dr", "city": "", "postalCode": "L3R5M5" },
        { "address": "18 Westminster Dr", "city": "", "postalCode": "L4B1P4" },
        { "address": "182 Markville Rd", "city": "", "postalCode": "L3R4V6" },
        { "address": "184 Thickson Rd N", "city": "", "postalCode": "L1N3R3" },
        { "address": "185 Oneida Cres", "city": "", "postalCode": "L4B0B1" },
        { "address": "188 Bay Thorn Dr", "city": "", "postalCode": "L3T3V5" },
        { "address": "19 Cody Ave", "city": "", "postalCode": "L1M1K7" },
        { "address": "19 Waring Ave", "city": "", "postalCode": "L1M1G4" },
        { "address": "191 Hunting Ridges Drive", "city": "", "postalCode": "L4E0N6" },
        { "address": "2 Griffin Crt", "city": "", "postalCode": "L3P6P7" },
        { "address": "2 Hanover Court", "city": "", "postalCode": "L1N7J2" },
        { "address": "2 Houghton Blvd", "city": "", "postalCode": "L3P2N6" },
        { "address": "2 Marmill Way", "city": "", "postalCode": "L3P7V6" },
        { "address": "2 Rae Crescent", "city": "", "postalCode": "L3R2X9" },
        { "address": "2 Wessex Dr", "city": "", "postalCode": "L1M2C4" },
        { "address": "2 Maison Park Court", "city": "", "postalCode": "L4J9K4" },
        { "address": "20 Bexley Crescent", "city": "", "postalCode": "L1M2C7" },
        { "address": "20 Cork Dr", "city": "", "postalCode": "L1R2B1" },
        { "address": "20 Edinburgh Drive", "city": "", "postalCode": "L4B1W3" },
        { "address": "20 Fred Varley Dr", "city": "", "postalCode": "L3R1S4" },
        { "address": "20 Kensington Drive", "city": "", "postalCode": "L4E3M9" },
        { "address": "20 North Park Road", "city": "", "postalCode": "L4J0G7" },
        { "address": "20 Winter Crt", "city": "", "postalCode": "L1N8Y2" },
        { "address": "205 Paradelle Drive", "city": "", "postalCode": "L4E0E4" },
        { "address": "21 Eagle Peak Dr", "city": "", "postalCode": "L4S2W3" },
        { "address": "21 Longwood Ave", "city": "", "postalCode": "L4E4B1" },
        { "address": "21 worthington Avenue", "city": "", "postalCode": "L4E2S7" },
        { "address": "214 Donald Sim Avenue", "city": "", "postalCode": "L6B0Y6" },
        { "address": "214 Stephen St", "city": "", "postalCode": "L4C5P1" },
        { "address": "219 Hollingham Rd", "city": "", "postalCode": "L3R8K4" },
        { "address": "21Eagle Peak Dr", "city": "", "postalCode": "L4S2W3" },
        { "address": "22 Bianca Dr", "city": "", "postalCode": "L3R5H2" },
        { "address": "22 Edgemont Court", "city": "", "postalCode": "L4S2H8" },
        { "address": "22 Gerry Ravary Pl", "city": "", "postalCode": "L1M0J1" },
        { "address": "22 Kilberry Drive", "city": "", "postalCode": "L1N7E5" },
        { "address": "22 Lambert Road", "city": "", "postalCode": "L3T7E6" },
        { "address": "22 Tannery Crt", "city": "", "postalCode": "L4C7V4" },
        { "address": "221 South Unionville Avenue", "city": "", "postalCode": "L3R5L3" },
        { "address": "222 Beechy Drive", "city": "", "postalCode": "L4C2X7" },
        { "address": "224 London Rd", "city": "", "postalCode": "L3Y6J3" },
        { "address": "23 Catkins Cres", "city": "", "postalCode": "L1R3A2" },
        { "address": "23 Eastwood Crescent", "city": "", "postalCode": "L3P5Z6" },
        { "address": "23 Gilmore Cres", "city": "", "postalCode": "L4J2Z9" },
        { "address": "23 Royal Feathers St", "city": "", "postalCode": "L6B1L1" },
        { "address": "233 South Park Rd", "city": "", "postalCode": "L3T0B3" },
        { "address": "24 Inglewood Place", "city": "", "postalCode": "L1N8Z9" },
        { "address": "243 Elman Cres", "city": "", "postalCode": "L3Y7X5" },
        { "address": "245 West Beaver Creek Road", "city": "", "postalCode": "L4B1L1" },
        { "address": "249 avenue Rd", "city": "", "postalCode": "L3Y1N8" },
        { "address": "25 Benville. Cres", "city": "", "postalCode": "L4G7K3" },
        { "address": "25 Blacksmith Lane", "city": "", "postalCode": "L1P1N1" },
        { "address": "25 Greenbush Pl", "city": "", "postalCode": "L1R1T6" },
        { "address": "251 Stonebridge Dr", "city": "", "postalCode": "L6C3A7" },
        { "address": "257 Jelley Avenue", "city": "", "postalCode": "L3X1S6" },
        { "address": "26 Aranka Court", "city": "", "postalCode": "L4C7T9" },
        { "address": "26 Chatsworth Cres", "city": "", "postalCode": "L1R1J4" },
        { "address": "265 whitby shores grwy", "city": "", "postalCode": "L1N9N4" },
        { "address": "27 Benjamin Way", "city": "", "postalCode": "L1N0K7" },
        { "address": "27 Gilchrist Court", "city": "", "postalCode": "L1R2P3" },
        { "address": "27 Gilchrist Crt", "city": "", "postalCode": "L1R2P3" },
        { "address": "27 Irwin Dr", "city": "", "postalCode": "L1N9B8" },
        { "address": "27 Renaissance Court", "city": "", "postalCode": "L4J7W4" },
        { "address": "27 Wincanton Road", "city": "", "postalCode": "L3S3H6" },
        { "address": "27 cady court", "city": "", "postalCode": "L4G6S1" },
        { "address": "276 Angus Glen Blvd", "city": "", "postalCode": "L6C0V1" },
        { "address": "28 Leacock Court", "city": "", "postalCode": "L3T6X8" },
        { "address": "28 Prince Regent St", "city": "", "postalCode": "L6C0V5" },
        { "address": "280 Paradelle Drive", "city": "", "postalCode": "L4E0C9" },
        { "address": "281 Forest Run Blvd", "city": "", "postalCode": "L4K5G2" },
        { "address": "281 patterson street", "city": "", "postalCode": "L3Y3L9" },
        { "address": "29 Bellhouse Place", "city": "", "postalCode": "L1M0G5" },
        { "address": "29 Stookes Crescent", "city": "", "postalCode": "L4E0J4" },
        { "address": "2900 Highway 7", "city": "", "postalCode": "L4K0G3" },
        { "address": "3 Capogna St", "city": "", "postalCode": "L6B0H5" },
        { "address": "3 Vineyard Avenue", "city": "", "postalCode": "L1P1T8" },
        { "address": "30 Aladdin Crescent", "city": "", "postalCode": "L4S2X1" },
        { "address": "30 Brower Avenue", "city": "", "postalCode": "L4E4Y7" },
        { "address": "30 Fallingbrook St", "city": "", "postalCode": "L1R1L9" },
        { "address": "30 Steele Valley Crt", "city": "", "postalCode": "L1R2M4" },
        { "address": "30 Trafford Cres", "city": "", "postalCode": "L3R7H9" },
        { "address": "30 leek cres", "city": "", "postalCode": "L4B4N4" },
        { "address": "310 John St", "city": "", "postalCode": "L3T0A7" },
        { "address": "302 Brookside Road", "city": "", "postalCode": "L4C0K8" },
        { "address": "306 John St", "city": "", "postalCode": "L3T0A7" },
        { "address": "306 Prince of Wales Dr", "city": "", "postalCode": "L1N6P6" },
        { "address": "307 Reading Place", "city": "", "postalCode": "L3Y6H6" },
        { "address": "31 Jarrow Cres", "city": "", "postalCode": "L1M0H2" },
        { "address": "31 Jarrow Cres", "city": "", "postalCode": "L1M0H2" },
        { "address": "31 Kindale Way", "city": "", "postalCode": "L3T4Z2" },
        { "address": "31 Melody Dr", "city": "", "postalCode": "L1M1K6" },
        { "address": "31 Nada Cres", "city": "", "postalCode": "L4L7R8" },
        { "address": "31 Sandbanks Dr", "city": "", "postalCode": "L4E4K7" },
        { "address": "312 John St", "city": "", "postalCode": "L3T0A7" },
        { "address": "316 John St", "city": "", "postalCode": "L3T0A7" },
        { "address": "319 Kent Street", "city": "", "postalCode": "L1N4Y5" },
        { "address": "32 Apple orchard Path", "city": "", "postalCode": "L3T3B6" },
        { "address": "32 Clegg Road", "city": "", "postalCode": "L6G0B2" },
        { "address": "32 Clegg rd", "city": "", "postalCode": "L6G0B2" },
        { "address": "32 Eric Clarke Dr", "city": "", "postalCode": "L1R2H8" },
        { "address": "32 Porterfield Cres", "city": "", "postalCode": "L3T4S7" },
        { "address": "320 john st", "city": "", "postalCode": "L3T0B1" },
        { "address": "321 Herridge Circle", "city": "", "postalCode": "L3Y7H9" },
        { "address": "33 Berkeley Crt", "city": "", "postalCode": "L3R6M1" },
        { "address": "33 Chambery Cres", "city": "", "postalCode": "L3R6L6" },
        { "address": "33 Samuel Oster Avenue", "city": "", "postalCode": "L4J7C6" },
        { "address": "34 Burndenford Cres", "city": "", "postalCode": "L3P7Z2" },
        { "address": "34 Magnotta Rd", "city": "", "postalCode": "L6C2V4" },
        { "address": "3438 Garrard Rd", "city": "", "postalCode": "L1R2C4" },
        { "address": "35 Downey Dr", "city": "", "postalCode": "L1M1J2" },
        { "address": "35 Jarrow crest", "city": "", "postalCode": "L1M0H2" },
        { "address": "35 Sandhill Crt", "city": "", "postalCode": "L1M2J4" },
        { "address": "350 Red Maple Rd", "city": "", "postalCode": "L4C0T5" },
        { "address": "355 Regal Briar Street", "city": "", "postalCode": "L1N6P4" },
        { "address": "312 John St", "city": "", "postalCode": "L3T0A7" },
        { "address": "36 Addison Street", "city": "", "postalCode": "L4C7M1" },
        { "address": "36 Forty Second", "city": "", "postalCode": "L3P7K2" },
        { "address": "367 Hollandview Trail", "city": "", "postalCode": "L4G7M8" },
        { "address": "368 Bur Oak Ave", "city": "", "postalCode": "L6C2T9" },
        { "address": "368 McBride Crescent", "city": "", "postalCode": "L3X2W2" },
        { "address": "369 Gilpin Drive", "city": "", "postalCode": "L3X3H2" },
        { "address": "37 Angelica Ave", "city": "", "postalCode": "L4S2E1" },
        { "address": "37 Donwoods Crescent", "city": "", "postalCode": "L1R0N1" },
        { "address": "37 Galleria Parkway Unit 1116", "city": "", "postalCode": "L3T0A5" },
        { "address": "37 Galleria Pky", "city": "", "postalCode": "L3T0A5" },
        { "address": "37 Hanson Cres", "city": "", "postalCode": "L1M2K9" },
        { "address": "37 daniel reaman crescent", "city": "", "postalCode": "L4J8V1" },
        { "address": "375 Carnwith Drive East", "city": "", "postalCode": "L1M2M1" },
        { "address": "38 Haverhill Cres", "city": "", "postalCode": "L1R3E7" },
        { "address": "38 Kilbride Dr", "city": "", "postalCode": "L1R2B3" },
        { "address": "38 Mazarine Lane L4S1K7", "city": "", "postalCode": "L4S0G2" },
        { "address": "38 Muir Cres", "city": "", "postalCode": "L1P1B6" },
        { "address": "38 Rosewood Court", "city": "", "postalCode": "L1N6Y6" },
        { "address": "380 Prince of Wales Dr", "city": "", "postalCode": "L1N6M9" },
        { "address": "381 Otton Road", "city": "", "postalCode": "L3X1E5" },
        { "address": "386 Spillette Court", "city": "", "postalCode": "L3Y7Z5" },
        { "address": "39 Versailles Crt", "city": "", "postalCode": "L4C8V7" },
        { "address": "39B Spragg Circle", "city": "", "postalCode": "L3P5W3" },
        { "address": "4 Houghton Boulevard", "city": "", "postalCode": "L3P2N6" },
        { "address": "4 sir Lancelot dr", "city": "", "postalCode": "L3P2H7" },
        { "address": "40 Fernbank Place", "city": "", "postalCode": "L1R1T1" },
        { "address": "40 Jeanne Crt", "city": "", "postalCode": "L1N3M5" },
        { "address": "40 Stargell Cres", "city": "", "postalCode": "L3P4J9" },
        { "address": "404 MARY ST W", "city": "", "postalCode": "L1N2R8" },
        { "address": "418 Hanlan Road", "city": "", "postalCode": "L4L4Z1" },
        { "address": "42 Belfountain Drive", "city": "", "postalCode": "L1R0C4" },
        { "address": "42 Shemer Dr", "city": "", "postalCode": "L4J9C1" },
        { "address": "421 Bantry Ave", "city": "", "postalCode": "L4B4E9" },
        { "address": "43 Pattemore Gate", "city": "", "postalCode": "L4G0C6" },
        { "address": "4300 Steeles Ave E", "city": "", "postalCode": "L3R0Y5" },
        { "address": "434 Steeles Ave W", "city": "", "postalCode": "L4J6X6" },
        { "address": "434 Steeles Ave West", "city": "", "postalCode": "L4J6X6" },
        { "address": "438 Easy Street", "city": "", "postalCode": "L4C5M6" },
        { "address": "44 Ladyslipper Court", "city": "", "postalCode": "L3T2S7" },
        { "address": "445 Apple Creek Blvd", "city": "", "postalCode": "L3R9X7" },
        { "address": "45 Fifewood Crescent", "city": "", "postalCode": "L1R1M9" },
        { "address": "46 Harpers Croft", "city": "", "postalCode": "L3R6L1" },
        { "address": "46 Rosemount Ave", "city": "", "postalCode": "L3T6S7" },
        { "address": "47 Florence Drive", "city": "", "postalCode": "L1R0K3" },
        { "address": "47 Glaceport Cres", "city": "", "postalCode": "L6C3B9" },
        { "address": "48 Alameda Circle", "city": "", "postalCode": "L4J8A6" },
        { "address": "48 Delair Cres", "city": "", "postalCode": "L3T2M4" },
        { "address": "48 Devlin Cres", "city": "", "postalCode": "L1N0J3" },
        { "address": "48 Suncrest Boulevard", "city": "", "postalCode": "L3T7Y5" },
        { "address": "48 comely way", "city": "", "postalCode": "L3R2L8" },
        { "address": "49 Braeside Square", "city": "", "postalCode": "L3R0A4" },
        { "address": "49 Glen dhu drive", "city": "", "postalCode": "L1R1K4" },
        { "address": "49 janesville rd", "city": "", "postalCode": "L4J6Z9" },
        { "address": "5 Angus Glen Blvd", "city": "", "postalCode": "L6C1Z1" },
        { "address": "5 Cardiff Crt", "city": "", "postalCode": "L1N5N8" },
        { "address": "5 Davis Road", "city": "", "postalCode": "L4G2B4" },
        { "address": "5 Emerald Lane", "city": "", "postalCode": "L4J8P7" },
        { "address": "5 Grandlea Crescent", "city": "", "postalCode": "L3S3V3" },
        { "address": "5 Juniper Crescent", "city": "", "postalCode": "L3R3Z6" },
        { "address": "5 Raven Cross Avenue", "city": "", "postalCode": "L6B0W5" },
        { "address": "50 Walmer Road Richmond Hill", "city": "", "postalCode": "L4C3X1" },
        { "address": "1 Royal Orchard Boulevard", "city": "", "postalCode": "L3T3C3" },
        { "address": "51 Saddlecreek Dr", "city": "", "postalCode": "L3T7Z1" },
        { "address": "51 Saddlecreek Drive", "city": "", "postalCode": "L3T7Z1" },
        { "address": "51 Salmon Way", "city": "", "postalCode": "L1N9M8" },
        { "address": "511 Greig Circle", "city": "", "postalCode": "L3Y8S6" },
        { "address": "52 Constellation Crescent", "city": "", "postalCode": "L4C8J3" },
        { "address": "52 Mae Brooks Drive", "city": "", "postalCode": "L3X3G8" },
        { "address": "520 Reynolds St", "city": "", "postalCode": "L1N6H5" },
        { "address": "523 Cody Crescent", "city": "", "postalCode": "L3Y5L9" },
        { "address": "523 Reynolds St", "city": "", "postalCode": "L1N6H4" },
        { "address": "53 Milloy Place", "city": "", "postalCode": "L4G7L2" },
        { "address": "532 Major Mackenzie Dr. E", "city": "", "postalCode": "L4C1J5" },
        { "address": "54 Westbury Court", "city": "", "postalCode": "L4S2L2" },
        { "address": "55 Jays Dr", "city": "", "postalCode": "L1R2P6" },
        { "address": "56 Greenspire Ave", "city": "", "postalCode": "L6E0S4" },
        { "address": "56 Kantium Way", "city": "", "postalCode": "L1N0L4" },
        { "address": "56 Millbank Ct", "city": "", "postalCode": "L4J6B8" },
        { "address": "57 Harrongate Pl", "city": "", "postalCode": "L1R3E5" },
        { "address": "57 Richard Person Dr", "city": "", "postalCode": "L6C1B1" },
        { "address": "58 Elm Grove Ave", "city": "", "postalCode": "L4E2V2" },
        { "address": "58 Karma rd", "city": "", "postalCode": "L3R4Y2" },
        { "address": "58 Old Kennedy Rd", "city": "", "postalCode": "L3R0L6" },
        { "address": "58 Tunney Place", "city": "", "postalCode": "L1M2G5" },
        { "address": "58 kindale way", "city": "", "postalCode": "L3T4Z3" },
        { "address": "580 Carlton Rd", "city": "", "postalCode": "L3R8X1" },
        { "address": "5855 Halls Road North", "city": "", "postalCode": "L1M1S5" },
        { "address": "59 Cimmaron St", "city": "", "postalCode": "L3S2G1" },
        { "address": "595 Taunton Rd E", "city": "", "postalCode": "L1R2X5" },
        { "address": "6 Captain Francis Drive", "city": "", "postalCode": "L3R9C7" },
        { "address": "6 Dalton Gardens Lane", "city": "", "postalCode": "L6B0A4" },
        { "address": "6 Ivy Stone Crt", "city": "", "postalCode": "L6B1H6" },
        { "address": "6 Mandel Cres", "city": "", "postalCode": "L4C9Z1" },
        { "address": "6 Sheila Crescent", "city": "", "postalCode": "L4B2Z8" },
        { "address": "6 Silverbirch Pl", "city": "", "postalCode": "L1R1X5" },
        { "address": "6 Springwood Cres", "city": "", "postalCode": "L3R3Z9" },
        { "address": "6 Sunny Rose Crt", "city": "", "postalCode": "L1R1V8" },
        { "address": "6 Thurgate Crescent", "city": "", "postalCode": "L3T4G3" },
        { "address": "6 cherry blossom lane", "city": "", "postalCode": "L3T3B9" },
        { "address": "60 Novan Crescent", "city": "", "postalCode": "L4G0X7" },
        { "address": "600 Cochrane Dr", "city": "", "postalCode": "L3R5K3" },
        { "address": "61 Carlinds Dr", "city": "", "postalCode": "L1R3B8" },
        { "address": "61 Ramona Blvd", "city": "", "postalCode": "L3P2K2" },
        { "address": "610 Mavrinac Blvd", "city": "", "postalCode": "L4G0H2" },
        { "address": "62 Aster Cres", "city": "", "postalCode": "L1M1J8" },
        { "address": "62 Duncombe Lane", "city": "", "postalCode": "L4C0Z9" },
        { "address": "62 Tormina blvd", "city": "", "postalCode": "L1R3B6" },
        { "address": "62 kenilworth cres", "city": "", "postalCode": "L1M2M6" },
        { "address": "63 Leameadow Road", "city": "", "postalCode": "L4J8T5" },
        { "address": "63 Ruffle Lane", "city": "", "postalCode": "L4E0W3" },
        { "address": "63 Spadina Rd", "city": "", "postalCode": "L4B2Y7" },
        { "address": "64 Denarius Cresent", "city": "", "postalCode": "L4E5B6" },
        { "address": "65 Dunbarton Crt", "city": "", "postalCode": "L4C8E9" },
        { "address": "65 Gayla Street", "city": "", "postalCode": "L4J6G3" },
        { "address": "65 Mary Elizabeth Crescent", "city": "", "postalCode": "L3R9L4" },
        { "address": "65 Oneida Cres", "city": "", "postalCode": "L4B0B1" },
        { "address": "65 Oneida Cres", "city": "", "postalCode": "L4B0B1" },
        { "address": "65 Summerdale Drive", "city": "", "postalCode": "L3T6W6" },
        { "address": "66 Barrington Cres", "city": "", "postalCode": "L3R3H3" },
        { "address": "67 Overhold Crescent", "city": "", "postalCode": "L4E0L4" },
        { "address": "675 Cochrane Drive", "city": "", "postalCode": "L3R0B8" },
        { "address": "68 Vandervoort Drive", "city": "", "postalCode": "L4E0C6" },
        { "address": "69 Daphnia Drive", "city": "", "postalCode": "L4J8X4" },
        { "address": "7 Brighton Place", "city": "", "postalCode": "L4J0H1" },
        { "address": "7 Forest Park Cres", "city": "", "postalCode": "L3T2M5" },
        { "address": "7 James Govan Dr", "city": "", "postalCode": "L1N0J8" },
        { "address": "7 Sherman Oaks Court", "city": "", "postalCode": "L4G7T5" },
        { "address": "7 Winn Place", "city": "", "postalCode": "L4G0S2" },
        { "address": "70 spring arbour rd", "city": "", "postalCode": "L4J0C3" },
        { "address": "71 Cathedral Dr", "city": "", "postalCode": "L1R3N9" },
        { "address": "71 Grasslands Avenue", "city": "", "postalCode": "L4B4K7" },
        { "address": "71 Norbury dr", "city": "", "postalCode": "L3S3V2" },
        { "address": "71 Northolt Cres", "city": "", "postalCode": "L3R6P3" },
        { "address": "71 woodstone place", "city": "", "postalCode": "L1R1S8" },
        { "address": "713 Beman Drive", "city": "", "postalCode": "L3Y4Z3" },
        { "address": "7161 Yonge Street", "city": "", "postalCode": "L3T0C8" },
        { "address": "72 Cantertrot Court", "city": "", "postalCode": "L4J7X7" },
        { "address": "72 The Fairways", "city": "", "postalCode": "L6C3B3" },
        { "address": "7200 Yonge street", "city": "", "postalCode": "L4J1V8" },
        { "address": "728 Sunnypoint Dr", "city": "", "postalCode": "L3Y2Z8" },
        { "address": "73 Ashcroft Crt", "city": "", "postalCode": "L4L1H3" },
        { "address": "73 King William Crescent", "city": "", "postalCode": "L4B0C2" },
        { "address": "73 Steele Valley Ct", "city": "", "postalCode": "L1R2M3" },
        { "address": "745 New Westminster Drive", "city": "", "postalCode": "L4J8J9" },
        { "address": "75 Rolling Acres Dr", "city": "", "postalCode": "L1R2B8" },
        { "address": "75 Weldrick Road East", "city": "", "postalCode": "L4C0H9" },
        { "address": "76 Nahanni Dr", "city": "", "postalCode": "L4B4L4" },
        { "address": "762 Playter Crescent", "city": "", "postalCode": "L3X1W8" },
        { "address": "77 Helston Crescent", "city": "", "postalCode": "L1M2K4" },
        { "address": "77 Lytton Boulevard", "city": "", "postalCode": "L4B3H4" },
        { "address": "77 The Fairways", "city": "", "postalCode": "L6C2A4" },
        { "address": "776 Sunnypoint Dr", "city": "", "postalCode": "L3Y3A2" },
        { "address": "7768 Kennedy Rd", "city": "", "postalCode": "L3R5K1" },
        { "address": "78 Anita Drive", "city": "", "postalCode": "L3R4T4" },
        { "address": "7805 Bayview Ave", "city": "", "postalCode": "L3T7N1" },
        { "address": "79 Couperthwaite Cres", "city": "", "postalCode": "L3R6M7" },
        { "address": "79 Inglewood Pl", "city": "", "postalCode": "L1N8Z8" },
        { "address": "8 Lambert Road", "city": "", "postalCode": "L3T7E2" },
        { "address": "8 Prince Albert Court", "city": "", "postalCode": "L4E3W5" },
        { "address": "8 Thurgate Crescent", "city": "", "postalCode": "L3T4G3" },
        { "address": "8 jays Dr", "city": "", "postalCode": "L1R2P5" },
        { "address": "80 Ashglen Way", "city": "", "postalCode": "L3R3A7" },
        { "address": "80 Augustine Ave", "city": "", "postalCode": "L4E0L3" },
        { "address": "80 Charnwood Pl", "city": "", "postalCode": "L3T5H3" },
        { "address": "80 Princess Diana Dr", "city": "", "postalCode": "L6C0G9" },
        { "address": "80 Whitehall Dr", "city": "", "postalCode": "L3R0P3" },
        { "address": "233 South Park Rd", "city": "", "postalCode": "L3T0B3" },
        { "address": "909 Burns St W", "city": "", "postalCode": "L1N6J5" },
        { "address": "83 Elm Grove Avenue", "city": "", "postalCode": "L4E2W8" },
        { "address": "84 Cousins Drive", "city": "", "postalCode": "L4G1B6" },
        { "address": "85 Cachet Blvd", "city": "", "postalCode": "L1M2E2" },
        { "address": "85 Carlyle Cres", "city": "", "postalCode": "L4G6P7" },
        { "address": "85 Henderson Avenue", "city": "", "postalCode": "L3T2L1" },
        { "address": "85 North Park Road", "city": "", "postalCode": "L4J0H9" },
        { "address": "85 Red Ash Drive", "city": "", "postalCode": "L3S4L2" },
        { "address": "8501 Bayview Ave", "city": "", "postalCode": "L4B3J7" },
        { "address": "87 Lake ave", "city": "", "postalCode": "L4E3G4" },
        { "address": "88 Eagle Peak Dr", "city": "", "postalCode": "L4S2W2" },
        { "address": "88 Tallships Drive", "city": "", "postalCode": "L1N9X5" },
        { "address": "89 Dawn Hill Trail", "city": "", "postalCode": "L3T3B4" },
        { "address": "89 SOUTH Town Centre Blvd", "city": "", "postalCode": "L6G0E8" },
        { "address": "89 Woodbury Crescent", "city": "", "postalCode": "L3X2T2" },
        { "address": "9 Circle Crt", "city": "", "postalCode": "L3T7M3" },
        { "address": "9 Crescentview Road", "city": "", "postalCode": "L4B2Z2" },
        { "address": "9 George Bogg Rd", "city": "", "postalCode": "L4L0A3" },
        { "address": "9 Halton Court", "city": "", "postalCode": "L3P6R3" },
        { "address": "9 Hollylane Drive", "city": "", "postalCode": "L6C2K1" },
        { "address": "9 Jordan Crt", "city": "", "postalCode": "L1M0A4" },
        { "address": "9 Lambert Road", "city": "", "postalCode": "L3T7E2" },
        { "address": "9 Stoney Stanton Rd", "city": "", "postalCode": "L6B0A8" },
        { "address": "9 Thatchers Mill Way", "city": "", "postalCode": "L3P3T2" },
        { "address": "9 Winter Crt", "city": "", "postalCode": "L1N8Y2" },
        { "address": "90 Drakefield Rd", "city": "", "postalCode": "L3P1H1" },
        { "address": "90 Summeridge Dr", "city": "", "postalCode": "L4J8S1" },
        { "address": "90 Swinton Cres", "city": "", "postalCode": "L4J3V5" },
        { "address": "9013 Yonge Street", "city": "", "postalCode": "L4C0L4" },
        { "address": "907 Burns street west", "city": "", "postalCode": "L1N6J5" },
        { "address": "91 Cathedral Dr", "city": "", "postalCode": "L1R0N7" },
        { "address": "91 Regency Cres", "city": "", "postalCode": "L1N7K8" },
        { "address": "91 Savoy Crescent", "city": "", "postalCode": "L4J7W3" },
        { "address": "9133 Bayview Avenue", "city": "", "postalCode": "L4B4V6" },
        { "address": "39 Galleria Parkway", "city": "", "postalCode": "L3T0A6" },
        { "address": "92 Tallships Dr", "city": "", "postalCode": "L1N9X5" },
        { "address": "920 Centre St N", "city": "", "postalCode": "L1N4V1" },
        { "address": "93 chiswick crescent", "city": "", "postalCode": "L4G6P1" },
        { "address": "937 creebridge cres", "city": "", "postalCode": "L3X1P1" },
        { "address": "94 Shrewsbury", "city": "", "postalCode": "L1M0E3" },
        { "address": "942 Greenwood Cres", "city": "", "postalCode": "L1N1C8" },
        { "address": "9471 Yonge Street", "city": "", "postalCode": "L4C0Z5" },
        { "address": "95 New Seabury Dr", "city": "", "postalCode": "L4K2B7" },
        { "address": "96 Arnold Crescent", "city": "", "postalCode": "L4C3R8" },
        { "address": "96 Prentice Dr", "city": "", "postalCode": "L1N9C2" },
        { "address": "97 Donnamora Crescent", "city": "", "postalCode": "L3T4K6" },
        { "address": "98 Harbourside Dr", "city": "", "postalCode": "L1N0H7" },
        { "address": "98 Tilman Circle", "city": "", "postalCode": "L3P5V4" },
        { "address": "99 Florence Dr", "city": "", "postalCode": "L1R0K5" },
        { "address": "99 Gateway Crt", "city": "", "postalCode": "L1R3M8" },
        { "address": "99 Rockland cres", "city": "", "postalCode": "L1M0A9" }
    ]
}
